COSMOS 2456 [GLONASS-M] 
1 36111U 09070A   20072.07345537  .00000027  00000-0  00000-0 0  9992
2 36111  64.2189 149.4272 0004160 315.8560 306.6360  2.13102776 79708
COSMOS 2457 [GLONASS-M] 
1 36112U 09070B   20072.49647524  .00000022  00000-0  00000+0 0  9994
2 36112  64.2004 149.3095 0005232 170.4541 180.3103  2.13101450 79713
WISE                    
1 36119U 09071A   20072.41821681  .00000575  00000-0  22370-4 0  9994
2 36119  97.3413 109.9153 0003309  41.7661 318.3832 15.29970256568987
YAOGAN 8                
1 36121U 09072A   20071.90319653  .00000345  00000-0  11933-2 0  9998
2 36121 100.1624  38.4366 0021811  70.5981 289.7481 13.04952688490190
XIWANG-1 (HOPE-1)       
1 36122U 09072B   20072.19581707 -.00000023  00000-0  49743-4 0  9998
2 36122 100.0877  67.1191 0008360  89.7265 270.4807 13.16353719492077
DIRECTV 12              
1 36131U 09075A   20072.05217164 -.00000121  00000-0  00000-0 0  9997
2 36131   0.0403 314.4054 0000310  84.8685  46.8360  1.00271472 23643
BEIDOU 3                
1 36287U 10001A   20072.45947616 -.00000301  00000-0  00000+0 0  9995
2 36287   1.3898  18.7039 0002538 114.0785 343.1061  1.00275862 37233
RADUGA-1M 2             
1 36358U 10002A   20072.11160780 -.00000202  00000-0  00000+0 0  9997
2 36358   0.0218 233.3579 0002102 166.7861 255.2392  1.00272798 37060
SDO                     
1 36395U 10005A   20046.62847222 -.00000093  00000-0  00000+0 0  9999
2 36395  30.1169 123.3911 0000622  13.2249 132.3808  1.00276457 36836
INTELSAT 16 (IS-16)     
1 36397U 10006A   20072.43966875 -.00000263  00000-0  00000+0 0  9995
2 36397   0.0166 187.2145 0002031 184.5072 240.8646  1.00270230 36794
COSMOS 2459 [GLONASS-M] 
1 36400U 10007A   20072.35136822 -.00000046  00000-0  10000-3 0  9997
2 36400  65.8561  31.1382 0027162 345.8220 284.0958  2.13105189 78063
COSMOS 2461 [GLONASS-M] 
1 36401U 10007B   20072.11266560 -.00000046  00000-0  10000-3 0  9995
2 36401  65.8482  31.1162 0006003  42.5517 313.4400  2.13102068 78054
COSMOS 2460 [GLONASS-M] 
1 36402U 10007C   20072.41066833 -.00000046  00000-0  10000-3 0  9990
2 36402  65.8391  31.0654 0002471 299.2078 324.7212  2.13101468 78067
GOES 15                 
1 36411U 10008A   20072.44771449  .00000036  00000-0  00000+0 0  9993
2 36411   0.3463 276.8184 0002272 132.0157 154.5043  1.00275250 36734
YAOGAN 9A               
1 36413U 10009A   20072.69613675 -.00000076  00000-0  17769-4 0  9999
2 36413  63.3891 140.3720 0336617   8.0472 352.5777 13.45183358492375
YAOGAN 9B               
1 36414U 10009B   20071.87672410 -.00000104  00000-0 -16376-4 0  9997
2 36414  63.3910 142.0027 0336741   7.5026 353.0866 13.45196684492285
YAOGAN 9C               
1 36415U 10009C   20072.24817114 -.00000073  00000-0  21635-4 0  9990
2 36415  63.3897 141.7312 0337782   7.7785 352.8296 13.45199804492307
ECHOSTAR 14             
1 36499U 10010A   20072.04894392 -.00000018  00000-0  00000-0 0  9993
2 36499   0.0171 196.4440 0002780 156.5285  75.8760  1.00269642 23614
CRYOSAT 2               
1 36508U 10013A   20072.24044340  .00000006  00000-0  83611-6 0  9990
2 36508  92.0248  84.1600 0007478 163.6171 196.5279 14.52175648526161
SES-1                   
1 36516U 10016A   20072.23382476 -.00000133  00000-0  00000-0 0  9993
2 36516   0.0430 309.5614 0002698  42.3106 161.6145  1.00271147 36106
COSMOS 2463             
1 36519U 10017A   20072.24449327  .00000128  00000-0  12509-3 0  9990
2 36519  82.9609 130.4031 0036123   0.1968 359.9194 13.71442392494408
ASTRA 3B                
1 36581U 10021A   20072.01507657  .00000119  00000-0  00000+0 0  9999
2 36581   0.0370  36.2072 0003186 319.1857 203.6174  1.00277136 35702
COMSATBW-2              
1 36582U 10021B   20072.07528917  .00000070  00000-0  00000-0 0  9995
2 36582   0.0218 148.2569 0002393 244.1046 178.1286  1.00276489 36010
NAVSTAR 65 (USA 213)    
1 36585U 10022A   20071.86879778 -.00000021  00000-0  00000+0 0  9995
2 36585  55.3835 300.8261 0090084  51.1679 232.1033  2.00574460 71693
BADR-5                  
1 36592U 10025A   20072.03599486  .00000126  00000-0  00000-0 0  9997
2 36592   0.0321 125.0053 0001866 291.9969 152.0659  1.00276081 35950
SJ-12                   
1 36596U 10027A   20072.22667925 -.00000118  00000-0 -53219-5 0  9996
2 36596  97.6490  63.3375 0010530 285.6090  74.3969 14.96668969531249
TANDEM-X                
1 36605U 10030A   20071.55208333  .00000136  00000-0  96543-5 0  9995
2 36605  97.4469  79.9580 0002018  92.7467  13.6947 15.19155609539172
COMS 1                  
1 36744U 10032A   20071.95464189 -.00000363  00000-0  00000-0 0  9999
2 36744   0.0146 166.1169 0001234 215.2787 260.4198  1.00268308 28142
ARABSAT-5A              
1 36745U 10032B   20072.22228170  .00000135  00000-0  00000-0 0  9995
2 36745   0.0659  40.6496 0002437 350.7863 249.3570  1.00271939 35701
ECHOSTAR 15             
1 36792U 10034A   20072.22271894 -.00000300  00000-0  00000-0 0  9995
2 36792   0.0400 281.9680 0002146  87.2998 179.5634  1.00270216 35397
CARTOSAT-2B             
1 36795U 10035A   20072.40376191  .00000038  00000-0  12310-4 0  9993
2 36795  97.9330 133.3342 0015233  42.3371 317.9022 14.78671328521847
AISSAT 1                
1 36797U 10035C   20072.39029061  .00000136  00000-0  22029-4 0  9991
2 36797  98.1559 218.6270 0010670 346.6117  13.4813 14.86277079523707
ALSAT 2A                
1 36798U 10035D   20072.43593341  .00000020  00000-0  12002-4 0  9996
2 36798  97.9804 128.6987 0001577 101.5129 258.6252 14.66600614517537
TISAT 1                 
1 36799U 10035E   20072.41713016  .00000366  00000-0  42899-4 0  9998
2 36799  98.1838 239.0137 0010994 289.8277  70.1754 14.91288957524665
BEIDOU 5                
1 36828U 10036A   20072.47304116 -.00000160  00000-0  10000-3 0  9996
2 36828  54.1629 183.8935 0091750 233.0478  41.7003  1.00290790 35272
NILESAT 201             
1 36830U 10037A   20071.78416169 -.00000076  00000-0  00000-0 0  9997
2 36830   0.0425 175.0756 0005409 201.4314  68.6379  1.00271068 35414
RASCOM-QAF 1R           
1 36831U 10037B   20072.22834196 -.00000000  00000-0  00000-0 0  9999
2 36831   0.0224 136.6369 0005542 212.5645 266.2022  1.00271927 35351
YAOGAN 10               
1 36834U 10038A   20072.39652448  .00000050  00000-0  13302-4 0  9996
2 36834  97.9760  76.1180 0001452  79.1984 280.9394 14.80960062518361
AEHF-1 (USA 214)        
1 36868U 10039A   20072.22834196  .00000009  00000-0  00000-0 0  9999
2 36868   2.5152  99.4983 0004026 281.9016 235.0824  1.00272290 30717
TIANHUI 1               
1 36985U 10040A   20072.48195659  .00000246  00000-0  13181-4 0  9994
2 36985  97.7178 253.6023 0012234 340.7120 103.3982 15.24403759531085
COSMOS 2464 [GLONASS-M] 
1 37139U 10041C   20072.16307641  .00000036  00000-0  00000-0 0  9997
2 37139  64.2102 269.2450 0027759  14.4507   7.7379  2.13100791 74131
CHINASAT 6A (ZX 6A)     
1 37150U 10042A   20072.24121190 -.00000373  00000-0  00000-0 0  9998
2 37150   0.0235 154.0234 0001900 349.9806 238.2257  1.00273325 34960
COSMOS 2467             
1 37152U 10043A   20072.42401440  .00000021  00000-0  79915-4 0  9994
2 37152  82.4550  55.9849 0002855  92.8867 267.2537 12.42892078431344
STRELA 3                
1 37153U 10043B   20072.45244840  .00000005  00000-0 -36706-4 0  9991
2 37153  82.4545  63.4161 0007342  19.6814 340.4546 12.40735943430725
COSMOS 2468             
1 37154U 10043C   20072.21501878  .00000026  00000-0  11700-3 0  9991
2 37154  82.4600  54.6675 0012769 257.8367 102.1284 12.43654733431530
QZS-1 (MICHIBIKI-1)     
1 37158U 10045A   20072.47397933 -.00000197  00000-0  00000+0 0  9997
2 37158  41.5390 144.9697 0748146 270.0396  60.5806  1.00302375 34772
YAOGAN 11               
1 37165U 10047A   20072.39412866  .00000031  00000-0  12445-4 0  9998
2 37165  98.2702 176.3661 0038313 354.8241   5.2573 14.76354054510116
ZHEDA PIXING 1B         
1 37166U 10047B   20072.41411778  .00000109  00000-0  20596-4 0  9995
2 37166  97.6756  67.9149 0022761 210.4194 149.5704 14.80902662511421
ZHEDA PIXING 1C         
1 37167U 10047C   20072.42703940  .00000115  00000-0  21384-4 0  9995
2 37167  97.6980  63.2040 0022392 209.2134 150.7830 14.80775947511394
SBSS (USA 216)          
1 37168U 10048A   20072.44398241  .00000011  00000-0  80332-5 0  9997
2 37168  97.9255 294.5791 0000724 112.1899  10.4866 14.81558007511297
SJ-6G                   
1 37179U 10051A   20072.41417349 -.00000055  00000-0  15143-6 0  9999
2 37179  97.6794  59.4102 0014473   4.0227 356.1089 14.93654801513884
SJ-6H                   
1 37180U 10051B   20072.39873974  .00000514  00000-0  54272-4 0  9991
2 37180  97.6859  58.6395 0012728  24.1570 336.0235 14.93357969513816
XM-5                    
1 37185U 10053A   20072.53543010 -.00000223  00000-0  00000+0 0  9992
2 37185   0.0240 154.5816 0002232 265.4991 218.0923  1.00268763 34507
GLOBALSTAR M079         
1 37188U 10054A   20072.50546875 -.00000110  00000-0 -33918-4 0  9990
2 37188  52.0019 232.7514 0000732  77.0330 323.9943 12.62268526434321
GLOBALSTAR M074         
1 37189U 10054B   20072.16489503 -.00000116  00000-0 -67425-4 0  9993
2 37189  51.9996 233.4112 0000747  75.9314  96.0913 12.62270482434241
GLOBALSTAR M076         
1 37190U 10054C   20072.47239653 -.00000112  00000-0 -47710-4 0  9999
2 37190  52.0010 232.4671 0001071  69.1681 301.3299 12.62263820434320
GLOBALSTAR M077         
1 37191U 10054D   20072.09863759 -.00000098  00000-0  30620-4 0  9992
2 37191  52.0062 189.9117 0000832  95.8373  75.5196 12.62265896434553
GLOBALSTAR M075         
1 37192U 10054E   20072.28329156 -.00000097  00000-0  39561-4 0  9994
2 37192  51.9934 276.3665 0000974  63.6239 107.4841 12.62265720433388
GLOBALSTAR M073         
1 37193U 10054F   20072.09876115 -.00000096  00000-0  43025-4 0  9995
2 37193  52.0048 189.2890 0000810  97.7435 314.7760 12.62268213435020
EUTELSAT W3B            
1 37206U 10056A   20071.94470573  .00000454  00000-0  18741-3 0  9996
2 37206   2.2901  91.1593 7111176 342.8064   2.0322  2.49115114 82257
